{
  "type": "FeatureCollection",
  "features": [
    {
      "type": "Feature",
      "properties": {
        "norad_id": 34079,
        "name": "IRIDIUM 33 DEB",
        "group": "iridium-33-debris",
        "lat": -25.50863381458411,
        "lon": 9.222467947463624,
        "alt_km": 621.6682681569109,
        "timestamp": "2025-12-07T16:44:04.297287+00:00",
        "meta_object_name": "IRIDIUM 33 DEB",
        "meta_object_id": "1997-051CN",
        "meta_epoch": "2025-12-06T20:36:57.983616",
        "meta_mean_motion": 14.83301604,
        "meta_eccentricity": 0.00063125,
        "meta_inclination": 86.377,
        "meta_ra_of_asc_node": 11.336,
        "meta_arg_of_pericenter": 26.7021,
        "meta_mean_anomaly": 154.5513,
        "meta_ephemeris_type": 0,
        "meta_classification_type": "U",
        "meta_norad_cat_id": 34079,
        "meta_element_set_no": 999,
        "meta_rev_at_epoch": 88890,
        "meta_bstar": 0.0028333793,
        "meta_mean_motion_dot": 0.00023271,
        "meta_mean_motion_ddot": 0,
        "tle_line1": "1 34079U 97051CN  25340.85900444  .00023271  00000+0  28334-2 0  9999",
        "tle_line2": "2 34079  86.3770  11.3360 0006312  26.7021 154.5513 14.83301604888907"
      },
      "geometry": {
        "type": "Point",
        "coordinates": [
          9.222467947463624,
          -25.50863381458411
        ]
      }
    },
    {
      "type": "Feature",
      "properties": {
        "norad_id": 34088,
        "name": "IRIDIUM 33 DEB",
        "group": "iridium-33-debris",
        "lat": -74.48708124119015,
        "lon": 19.8746522467627,
        "alt_km": 602.1323031513084,
        "timestamp": "2025-12-07T16:44:04.297297+00:00",
        "meta_object_name": "IRIDIUM 33 DEB",
        "meta_object_id": "1997-051CX",
        "meta_epoch": "2025-12-06T22:31:14.068992",
        "meta_mean_motion": 14.90964191,
        "meta_eccentricity": 0.00052577,
        "meta_inclination": 86.3849,
        "meta_ra_of_asc_node": 33.389,
        "meta_arg_of_pericenter": 198.2241,
        "meta_mean_anomaly": 336.0244,
        "meta_ephemeris_type": 0,
        "meta_classification_type": "U",
        "meta_norad_cat_id": 34088,
        "meta_element_set_no": 999,
        "meta_rev_at_epoch": 88655,
        "meta_bstar": 0.0039064328,
        "meta_mean_motion_dot": 0.00038774,
        "meta_mean_motion_ddot": 0,
        "tle_line1": "1 34088U 97051CX  25340.93835728  .00038774  00000+0  39064-2 0  9996",
        "tle_line2": "2 34088  86.3849  33.3890 0005257 198.2241 336.0244 14.90964191886553"
      },
      "geometry": {
        "type": "Point",
        "coordinates": [
          19.8746522467627,
          -74.48708124119015
        ]
      }
    },
    {
      "type": "Feature",
      "properties": {
        "norad_id": 34091,
        "name": "IRIDIUM 33 DEB",
        "group": "iridium-33-debris",
        "lat": -73.77933809179659,
        "lon": 56.441458983985136,
        "alt_km": 611.8287750100126,
        "timestamp": "2025-12-07T16:44:04.297308+00:00",
        "meta_object_name": "IRIDIUM 33 DEB",
        "meta_object_id": "1997-051DA",
        "meta_epoch": "2025-12-06T16:44:46.781088",
        "meta_mean_motion": 14.81124325,
        "meta_eccentricity": 0.00331132,
        "meta_inclination": 86.3424,
        "meta_ra_of_asc_node": 69.6006,
        "meta_arg_of_pericenter": 314.9331,
        "meta_mean_anomaly": 44.9204,
        "meta_ephemeris_type": 0,
        "meta_classification_type": "U",
        "meta_norad_cat_id": 34091,
        "meta_element_set_no": 999,
        "meta_rev_at_epoch": 87777,
        "meta_bstar": 0.0087798064,
        "meta_mean_motion_dot": 0.00069464,
        "meta_mean_motion_ddot": 0,
        "tle_line1": "1 34091U 97051DA  25340.69776367  .00069464  00000+0  87798-2 0  9993",
        "tle_line2": "2 34091  86.3424  69.6006 0033113 314.9331  44.9204 14.81124325877778"
      },
      "geometry": {
        "type": "Point",
        "coordinates": [
          56.441458983985136,
          -73.77933809179659
        ]
      }
    },
    {
      "type": "Feature",
      "properties": {
        "norad_id": 34097,
        "name": "IRIDIUM 33 DEB",
        "group": "iridium-33-debris",
        "lat": -58.789345497558074,
        "lon": -2.66440972652869,
        "alt_km": 769.8229317583618,
        "timestamp": "2025-12-07T16:44:04.297319+00:00",
        "meta_object_name": "IRIDIUM 33 DEB",
        "meta_object_id": "1997-051DG",
        "meta_epoch": "2025-12-06T12:33:02.637216",
        "meta_mean_motion": 14.34704605,
        "meta_eccentricity": 0.00832985,
        "meta_inclination": 86.1999,
        "meta_ra_of_asc_node": 4.1517,
        "meta_arg_of_pericenter": 22.3906,
        "meta_mean_anomaly": 338.0891,
        "meta_ephemeris_type": 0,
        "meta_classification_type": "U",
        "meta_norad_cat_id": 34097,
        "meta_element_set_no": 999,
        "meta_rev_at_epoch": 87030,
        "meta_bstar": 0.002279274,
        "meta_mean_motion_dot": 6.729e-05,
        "meta_mean_motion_ddot": 0,
        "tle_line1": "1 34097U 97051DG  25340.52294719  .00006729  00000+0  22793-2 0  9996",
        "tle_line2": "2 34097  86.1999   4.1517 0083298  22.3906 338.0891 14.34704605870301"
      },
      "geometry": {
        "type": "Point",
        "coordinates": [
          -2.66440972652869,
          -58.789345497558074
        ]
      }
    },
    {
      "type": "Feature",
      "properties": {
        "norad_id": 34145,
        "name": "IRIDIUM 33 DEB",
        "group": "iridium-33-debris",
        "lat": 74.20909894268274,
        "lon": -11.675387967439296,
        "alt_km": 711.6559763563437,
        "timestamp": "2025-12-07T16:44:04.297330+00:00",
        "meta_object_name": "IRIDIUM 33 DEB",
        "meta_object_id": "1997-051DY",
        "meta_epoch": "2025-12-06T17:04:42.938112",
        "meta_mean_motion": 14.42224915,
        "meta_eccentricity": 0.00555052,
        "meta_inclination": 86.211,
        "meta_ra_of_asc_node": 335.211,
        "meta_arg_of_pericenter": 112.9969,
        "meta_mean_anomaly": 247.71,
        "meta_ephemeris_type": 0,
        "meta_classification_type": "U",
        "meta_norad_cat_id": 34145,
        "meta_element_set_no": 999,
        "meta_rev_at_epoch": 87551,
        "meta_bstar": 0.0017839486,
        "meta_mean_motion_dot": 6.008e-05,
        "meta_mean_motion_ddot": 0,
        "tle_line1": "1 34145U 97051DY  25340.71160808  .00006008  00000+0  17839-2 0  9997",
        "tle_line2": "2 34145  86.2110 335.2110 0055505 112.9969 247.7100 14.42224915875510"
      },
      "geometry": {
        "type": "Point",
        "coordinates": [
          -11.675387967439296,
          74.20909894268274
        ]
      }
    },
    {
      "type": "Feature",
      "properties": {
        "norad_id": 34146,
        "name": "IRIDIUM 33 DEB",
        "group": "iridium-33-debris",
        "lat": -49.49436516255961,
        "lon": -12.335884922034113,
        "alt_km": 729.8928890879679,
        "timestamp": "2025-12-07T16:44:04.297340+00:00",
        "meta_object_name": "IRIDIUM 33 DEB",
        "meta_object_id": "1997-051DZ",
        "meta_epoch": "2025-12-06T11:50:11.529600",
        "meta_mean_motion": 14.4898423,
        "meta_eccentricity": 0.00250615,
        "meta_inclination": 86.2832,
        "meta_ra_of_asc_node": 352.5599,
        "meta_arg_of_pericenter": 243.9958,
        "meta_mean_anomaly": 269.256,
        "meta_ephemeris_type": 0,
        "meta_classification_type": "U",
        "meta_norad_cat_id": 34146,
        "meta_element_set_no": 999,
        "meta_rev_at_epoch": 88016,
        "meta_bstar": 0.0017576826,
        "meta_mean_motion_dot": 6.708e-05,
        "meta_mean_motion_ddot": 0,
        "tle_line1": "1 34146U 97051DZ  25340.49318900  .00006708  00000+0  17577-2 0  9997",
        "tle_line2": "2 34146  86.2832 352.5599 0025061 243.9958 269.2560 14.48984230880167"
      },
      "geometry": {
        "type": "Point",
        "coordinates": [
          -12.335884922034113,
          -49.49436516255961
        ]
      }
    },
    {
      "type": "Feature",
      "properties": {
        "norad_id": 34159,
        "name": "IRIDIUM 33 DEB",
        "group": "iridium-33-debris",
        "lat": -35.734234688983435,
        "lon": -126.97724302170118,
        "alt_km": 769.894508528997,
        "timestamp": "2025-12-07T16:44:04.297351+00:00",
        "meta_object_name": "IRIDIUM 33 DEB",
        "meta_object_id": "1997-051EN",
        "meta_epoch": "2025-12-06T16:21:33.570720",
        "meta_mean_motion": 14.38471316,
        "meta_eccentricity": 0.00261741,
        "meta_inclination": 86.3519,
        "meta_ra_of_asc_node": 50.8246,
        "meta_arg_of_pericenter": 309.1384,
        "meta_mean_anomaly": 50.7488,
        "meta_ephemeris_type": 0,
        "meta_classification_type": "U",
        "meta_norad_cat_id": 34159,
        "meta_element_set_no": 999,
        "meta_rev_at_epoch": 87872,
        "meta_bstar": 0.00079175056,
        "meta_mean_motion_dot": 2.445e-05,
        "meta_mean_motion_ddot": 0,
        "tle_line1": "1 34159U 97051EN  25340.68163855  .00002445  00000+0  79175-3 0  9996",
        "tle_line2": "2 34159  86.3519  50.8246 0026174 309.1384  50.7488 14.38471316878721"
      },
      "geometry": {
        "type": "Point",
        "coordinates": [
          -126.97724302170118,
          -35.734234688983435
        ]
      }
    }
  ]
}